<?xml version="1.0" encoding="UTF-8"?>
<ndm xmlns:xsi="http://www.w3.org/2001/XMLSchema-instance" xsi:noNamespaceSchemaLocation="https://sanaregistry.org/r/ndmxml_unqualified/ndmxml-2.0.0-master-2.0.xsd">
<omm id="CCSDS_OMM_VERS" version="2.0">
<header><CREATION_DATE/><ORIGINATOR/></header><body><segment><metadata><OBJECT_NAME>KUIPER-00133</OBJECT_NAME><OBJECT_ID>2025-217C</OBJECT_ID><CENTER_NAME>EARTH</CENTER_NAME><REF_FRAME>TEME</REF_FRAME><TIME_SYSTEM>UTC</TIME_SYSTEM><MEAN_ELEMENT_THEORY>SGP4</MEAN_ELEMENT_THEORY></metadata><data><meanElements><EPOCH>2026-01-07T07:42:58.670496</EPOCH><MEAN_MOTION>14.79961191</MEAN_MOTION><ECCENTRICITY>.0011781</ECCENTRICITY><INCLINATION>51.9046</INCLINATION><RA_OF_ASC_NODE>324.4704</RA_OF_ASC_NODE><ARG_OF_PERICENTER>114.9685</ARG_OF_PERICENTER><MEAN_ANOMALY>245.2503</MEAN_ANOMALY></meanElements><tleParameters><EPHEMERIS_TYPE>0</EPHEMERIS_TYPE><CLASSIFICATION_TYPE>U</CLASSIFICATION_TYPE><NORAD_CAT_ID>65764</NORAD_CAT_ID><ELEMENT_SET_NO>999</ELEMENT_SET_NO><REV_AT_EPOCH>1565</REV_AT_EPOCH><BSTAR>.66665E-3</BSTAR><MEAN_MOTION_DOT>.4871E-4</MEAN_MOTION_DOT><MEAN_MOTION_DDOT>0</MEAN_MOTION_DDOT></tleParameters></data></segment></body></omm>
<omm id="CCSDS_OMM_VERS" version="2.0">
<header><CREATION_DATE/><ORIGINATOR/></header><body><segment><metadata><OBJECT_NAME>KUIPER-00139</OBJECT_NAME><OBJECT_ID>2025-217D</OBJECT_ID><CENTER_NAME>EARTH</CENTER_NAME><REF_FRAME>TEME</REF_FRAME><TIME_SYSTEM>UTC</TIME_SYSTEM><MEAN_ELEMENT_THEORY>SGP4</MEAN_ELEMENT_THEORY></metadata><data><meanElements><EPOCH>2026-01-07T13:32:52.986624</EPOCH><MEAN_MOTION>15.02180514</MEAN_MOTION><ECCENTRICITY>.0008853</ECCENTRICITY><INCLINATION>51.8863</INCLINATION><RA_OF_ASC_NODE>313.7117</RA_OF_ASC_NODE><ARG_OF_PERICENTER>109.7555</ARG_OF_PERICENTER><MEAN_ANOMALY>250.4372</MEAN_ANOMALY></meanElements><tleParameters><EPHEMERIS_TYPE>0</EPHEMERIS_TYPE><CLASSIFICATION_TYPE>U</CLASSIFICATION_TYPE><NORAD_CAT_ID>65765</NORAD_CAT_ID><ELEMENT_SET_NO>999</ELEMENT_SET_NO><REV_AT_EPOCH>1582</REV_AT_EPOCH><BSTAR>.63687E-3</BSTAR><MEAN_MOTION_DOT>.8223E-4</MEAN_MOTION_DOT><MEAN_MOTION_DDOT>0</MEAN_MOTION_DDOT></tleParameters></data></segment></body></omm>
<omm id="CCSDS_OMM_VERS" version="2.0">
<header><CREATION_DATE/><ORIGINATOR/></header><body><segment><metadata><OBJECT_NAME>KUIPER-00142</OBJECT_NAME><OBJECT_ID>2025-217E</OBJECT_ID><CENTER_NAME>EARTH</CENTER_NAME><REF_FRAME>TEME</REF_FRAME><TIME_SYSTEM>UTC</TIME_SYSTEM><MEAN_ELEMENT_THEORY>SGP4</MEAN_ELEMENT_THEORY></metadata><data><meanElements><EPOCH>2026-01-07T20:00:01.999872</EPOCH><MEAN_MOTION>14.86601160</MEAN_MOTION><ECCENTRICITY>.0003224</ECCENTRICITY><INCLINATION>51.8970</INCLINATION><RA_OF_ASC_NODE>304.9466</RA_OF_ASC_NODE><ARG_OF_PERICENTER>131.5271</ARG_OF_PERICENTER><MEAN_ANOMALY>26.7763</MEAN_ANOMALY></meanElements><tleParameters><EPHEMERIS_TYPE>0</EPHEMERIS_TYPE><CLASSIFICATION_TYPE>U</CLASSIFICATION_TYPE><NORAD_CAT_ID>65766</NORAD_CAT_ID><ELEMENT_SET_NO>999</ELEMENT_SET_NO><REV_AT_EPOCH>360</REV_AT_EPOCH><BSTAR>-.14634E-2</BSTAR><MEAN_MOTION_DOT>-.13317E-3</MEAN_MOTION_DOT><MEAN_MOTION_DDOT>0</MEAN_MOTION_DDOT></tleParameters></data></segment></body></omm>
<omm id="CCSDS_OMM_VERS" version="2.0">
<header><CREATION_DATE/><ORIGINATOR/></header><body><segment><metadata><OBJECT_NAME>KUIPER-00145</OBJECT_NAME><OBJECT_ID>2025-217F</OBJECT_ID><CENTER_NAME>EARTH</CENTER_NAME><REF_FRAME>TEME</REF_FRAME><TIME_SYSTEM>UTC</TIME_SYSTEM><MEAN_ELEMENT_THEORY>SGP4</MEAN_ELEMENT_THEORY></metadata><data><meanElements><EPOCH>2026-01-07T20:00:01.999872</EPOCH><MEAN_MOTION>14.83161081</MEAN_MOTION><ECCENTRICITY>.0007644</ECCENTRICITY><INCLINATION>51.9001</INCLINATION><RA_OF_ASC_NODE>307.3007</RA_OF_ASC_NODE><ARG_OF_PERICENTER>95.6006</ARG_OF_PERICENTER><MEAN_ANOMALY>162.2453</MEAN_ANOMALY></meanElements><tleParameters><EPHEMERIS_TYPE>0</EPHEMERIS_TYPE><CLASSIFICATION_TYPE>U</CLASSIFICATION_TYPE><NORAD_CAT_ID>65767</NORAD_CAT_ID><ELEMENT_SET_NO>999</ELEMENT_SET_NO><REV_AT_EPOCH>568</REV_AT_EPOCH><BSTAR>-.15863E-2</BSTAR><MEAN_MOTION_DOT>-.13277E-3</MEAN_MOTION_DOT><MEAN_MOTION_DDOT>0</MEAN_MOTION_DDOT></tleParameters></data></segment></body></omm>
<omm id="CCSDS_OMM_VERS" version="2.0">
<header><CREATION_DATE/><ORIGINATOR/></header><body><segment><metadata><OBJECT_NAME>KUIPER-00147</OBJECT_NAME><OBJECT_ID>2025-217G</OBJECT_ID><CENTER_NAME>EARTH</CENTER_NAME><REF_FRAME>TEME</REF_FRAME><TIME_SYSTEM>UTC</TIME_SYSTEM><MEAN_ELEMENT_THEORY>SGP4</MEAN_ELEMENT_THEORY></metadata><data><meanElements><EPOCH>2026-01-07T20:00:01.999872</EPOCH><MEAN_MOTION>14.82845664</MEAN_MOTION><ECCENTRICITY>.0004824</ECCENTRICITY><INCLINATION>51.8988</INCLINATION><RA_OF_ASC_NODE>309.7880</RA_OF_ASC_NODE><ARG_OF_PERICENTER>113.1744</ARG_OF_PERICENTER><MEAN_ANOMALY>346.1733</MEAN_ANOMALY></meanElements><tleParameters><EPHEMERIS_TYPE>0</EPHEMERIS_TYPE><CLASSIFICATION_TYPE>U</CLASSIFICATION_TYPE><NORAD_CAT_ID>65768</NORAD_CAT_ID><ELEMENT_SET_NO>999</ELEMENT_SET_NO><REV_AT_EPOCH>495</REV_AT_EPOCH><BSTAR>-.60227E-3</BSTAR><MEAN_MOTION_DOT>-.5149E-4</MEAN_MOTION_DOT><MEAN_MOTION_DDOT>0</MEAN_MOTION_DDOT></tleParameters></data></segment></body></omm>
<omm id="CCSDS_OMM_VERS" version="2.0">
<header><CREATION_DATE/><ORIGINATOR/></header><body><segment><metadata><OBJECT_NAME>KUIPER-00148</OBJECT_NAME><OBJECT_ID>2025-217H</OBJECT_ID><CENTER_NAME>EARTH</CENTER_NAME><REF_FRAME>TEME</REF_FRAME><TIME_SYSTEM>UTC</TIME_SYSTEM><MEAN_ELEMENT_THEORY>SGP4</MEAN_ELEMENT_THEORY></metadata><data><meanElements><EPOCH>2026-01-07T07:17:15.715968</EPOCH><MEAN_MOTION>15.09112419</MEAN_MOTION><ECCENTRICITY>.0010381</ECCENTRICITY><INCLINATION>51.8785</INCLINATION><RA_OF_ASC_NODE>309.1058</RA_OF_ASC_NODE><ARG_OF_PERICENTER>133.7178</ARG_OF_PERICENTER><MEAN_ANOMALY>226.4658</MEAN_ANOMALY></meanElements><tleParameters><EPHEMERIS_TYPE>0</EPHEMERIS_TYPE><CLASSIFICATION_TYPE>U</CLASSIFICATION_TYPE><NORAD_CAT_ID>65769</NORAD_CAT_ID><ELEMENT_SET_NO>999</ELEMENT_SET_NO><REV_AT_EPOCH>1586</REV_AT_EPOCH><BSTAR>.80868E-3</BSTAR><MEAN_MOTION_DOT>.12722E-3</MEAN_MOTION_DOT><MEAN_MOTION_DDOT>0</MEAN_MOTION_DDOT></tleParameters></data></segment></body></omm>
<omm id="CCSDS_OMM_VERS" version="2.0">
<header><CREATION_DATE/><ORIGINATOR/></header><body><segment><metadata><OBJECT_NAME>KUIPER-00150</OBJECT_NAME><OBJECT_ID>2025-217J</OBJECT_ID><CENTER_NAME>EARTH</CENTER_NAME><REF_FRAME>TEME</REF_FRAME><TIME_SYSTEM>UTC</TIME_SYSTEM><MEAN_ELEMENT_THEORY>SGP4</MEAN_ELEMENT_THEORY></metadata><data><meanElements><EPOCH>2026-01-07T06:09:32.138208</EPOCH><MEAN_MOTION>14.79918605</MEAN_MOTION><ECCENTRICITY>.0000994</ECCENTRICITY><INCLINATION>51.9047</INCLINATION><RA_OF_ASC_NODE>322.2559</RA_OF_ASC_NODE><ARG_OF_PERICENTER>85.3149</ARG_OF_PERICENTER><MEAN_ANOMALY>274.7927</MEAN_ANOMALY></meanElements><tleParameters><EPHEMERIS_TYPE>0</EPHEMERIS_TYPE><CLASSIFICATION_TYPE>U</CLASSIFICATION_TYPE><NORAD_CAT_ID>65770</NORAD_CAT_ID><ELEMENT_SET_NO>999</ELEMENT_SET_NO><REV_AT_EPOCH>1567</REV_AT_EPOCH><BSTAR>-.37019E-3</BSTAR><MEAN_MOTION_DOT>-.3041E-4</MEAN_MOTION_DOT><MEAN_MOTION_DDOT>0</MEAN_MOTION_DDOT></tleParameters></data></segment></body></omm>
<omm id="CCSDS_OMM_VERS" version="2.0">
<header><CREATION_DATE/><ORIGINATOR/></header><body><segment><metadata><OBJECT_NAME>KUIPER-00151</OBJECT_NAME><OBJECT_ID>2025-217K</OBJECT_ID><CENTER_NAME>EARTH</CENTER_NAME><REF_FRAME>TEME</REF_FRAME><TIME_SYSTEM>UTC</TIME_SYSTEM><MEAN_ELEMENT_THEORY>SGP4</MEAN_ELEMENT_THEORY></metadata><data><meanElements><EPOCH>2026-01-07T12:50:21.706944</EPOCH><MEAN_MOTION>14.79951785</MEAN_MOTION><ECCENTRICITY>.0001034</ECCENTRICITY><INCLINATION>51.9026</INCLINATION><RA_OF_ASC_NODE>313.5236</RA_OF_ASC_NODE><ARG_OF_PERICENTER>74.7587</ARG_OF_PERICENTER><MEAN_ANOMALY>285.3489</MEAN_ANOMALY></meanElements><tleParameters><EPHEMERIS_TYPE>0</EPHEMERIS_TYPE><CLASSIFICATION_TYPE>U</CLASSIFICATION_TYPE><NORAD_CAT_ID>65771</NORAD_CAT_ID><ELEMENT_SET_NO>999</ELEMENT_SET_NO><REV_AT_EPOCH>1582</REV_AT_EPOCH><BSTAR>.49118E-3</BSTAR><MEAN_MOTION_DOT>.3527E-4</MEAN_MOTION_DOT><MEAN_MOTION_DDOT>0</MEAN_MOTION_DDOT></tleParameters></data></segment></body></omm>

</ndm>
