KUIPER-00133            
1 65764U 25217C   26007.32151239  .00004871  00000+0  66665-3 0  9997
2 65764  51.9046 324.4704 0011781 114.9685 245.2503 14.79961191 15657
KUIPER-00139            
1 65765U 25217D   26007.56450216  .00008223  00000+0  63687-3 0  9997
2 65765  51.8863 313.7117 0008853 109.7555 250.4372 15.02180514 15827
KUIPER-00142            
1 65766U 25217E   26007.83335648 -.00013317  00000+0 -14634-2 0  9998
2 65766  51.8970 304.9466 0003224 131.5271  26.7763 14.86601160  3608
KUIPER-00145            
1 65767U 25217F   26007.83335648 -.00013277  00000+0 -15863-2 0  9999
2 65767  51.9001 307.3007 0007644  95.6006 162.2453 14.83161081  5681
KUIPER-00147            
1 65768U 25217G   26007.83335648 -.00005149  00000+0 -60227-3 0  9994
2 65768  51.8988 309.7880 0004824 113.1744 346.1733 14.82845664  4950
KUIPER-00148            
1 65769U 25217H   26007.30365412  .00012722  00000+0  80868-3 0  9995
2 65769  51.8785 309.1058 0010381 133.7178 226.4658 15.09112419 15864
KUIPER-00150            
1 65770U 25217J   26007.25662197 -.00003041  00000+0 -37019-3 0  9997
2 65770  51.9047 322.2559 0000994  85.3149 274.7927 14.79918605 15670
KUIPER-00151            
1 65771U 25217K   26007.53497346  .00003527  00000+0  49118-3 0  9991
2 65771  51.9026 313.5236 0001034  74.7587 285.3489 14.79951785 15821
